ONEWEB-0012             
1 44057U 19010A   26062.54140032 -.00000023  00000+0 -92887-4 0  9990
2 44057  87.8996 249.8018 0001162  93.4019 266.7245 13.16592784337660
ONEWEB-0010             
1 44058U 19010B   26062.56673217  .00000052  00000+0  10313-3 0  9992
2 44058  87.8999 249.7919 0001869 104.5917 255.5422 13.16592569337718
ONEWEB-0008             
1 44059U 19010C   26062.51607174  .00000103  00000+0  23511-3 0  9998
2 44059  87.8999 249.7995 0001670  86.6054 273.5268 13.16593621337825
ONEWEB-0007             
1 44060U 19010D   26062.61935432 -.00000041  00000+0 -14183-3 0  9990
2 44060  87.8947 280.3033 0001425  99.1855 260.9437 13.15547101337492
ONEWEB-0006             
1 44061U 19010E   26062.62330236 -.00000071  00000+0 -22215-3 0  9991
2 44061  87.8956 280.2556 0001678  99.5611 260.5709 13.15546550337547
ONEWEB-0011             
1 44062U 19010F   26062.51556534  .00000177  00000+0  43636-3 0  9996
2 44062  87.8957 280.2856 0001753  89.7454 270.3878 13.15551095337526
ONEWEB-0013             
1 45131U 20008A   26062.49347098  .00000349  00000+0  97747-3 0  9996
2 45131  87.8427  74.1641 0000909  76.2735 283.8493 13.09443974292232
ONEWEB-0017             
1 45132U 20008B   26062.47365025 -.00000602  00000+0 -17611-2 0  9990
2 45132  87.8763  57.3221 0002004  92.6074 267.5283 13.10373733294100
ONEWEB-0020             
1 45133U 20008C   26062.52015335  .00000386  00000+0  10681-2 0  9990
2 45133  87.8765  57.3028 0001844  88.5909 271.5429 13.10369311294508
ONEWEB-0021             
1 45134U 20008D   26062.53506962 -.00000360  00000+0 -10675-2 0  9990
2 45134  87.8757  57.3246 0001769  90.1691 269.9639 13.10369558294816
ONEWEB-0023             
1 45136U 20008F   26062.54585383 -.00000616  00000+0 -18019-2 0  9991
2 45136  87.8759  57.3020 0001672  85.0983 275.0335 13.10372886294246
ONEWEB-0024             
1 45137U 20008G   26062.51847031 -.00008339  00000+0 -23933-1 0  9990
2 45137  87.8771  57.2915 0002114  89.0292 271.1078 13.10412492294409
ONEWEB-0025             
1 45138U 20008H   26062.52851165  .00000011  00000+0 -61176-5 0  9998
2 45138  87.8768  57.2831 0001515  90.0066 270.1235 13.10871784294731
ONEWEB-0026             
1 45139U 20008J   26062.48753739 -.00000045  00000+0 -16295-3 0  9990
2 45139  87.8852  42.0822 0002004  85.7189 274.4168 13.11414036297255
ONEWEB-0028             
1 45140U 20008K   26062.44428829 -.00000324  00000+0 -94883-3 0  9996
2 45140  87.8842  42.1001 0001241  73.6830 286.4434 13.11418479294764
ONEWEB-0032             
1 45141U 20008L   26062.47529649 -.00000545  00000+0 -15963-2 0  9998
2 45141  87.8765  57.3229 0001470  79.7319 280.3974 13.10372897294452
