[{"OBJECT_NAME":"ONEWEB-0012","OBJECT_ID":"2019-010A","EPOCH":"2026-03-03T12:59:36.987648","MEAN_MOTION":13.16592784,"ECCENTRICITY":0.00011628,"INCLINATION":87.8996,"RA_OF_ASC_NODE":249.8018,"ARG_OF_PERICENTER":93.4019,"MEAN_ANOMALY":266.7245,"EPHEMERIS_TYPE":0,"CLASSIFICATION_TYPE":"U","NORAD_CAT_ID":44057,"ELEMENT_SET_NO":999,"REV_AT_EPOCH":33766,"BSTAR":-9.2886962e-5,"MEAN_MOTION_DOT":-2.3e-7,"MEAN_MOTION_DDOT":0},{"OBJECT_NAME":"ONEWEB-0010","OBJECT_ID":"2019-010B","EPOCH":"2026-03-03T13:36:05.659488","MEAN_MOTION":13.16592569,"ECCENTRICITY":0.00018695,"INCLINATION":87.8999,"RA_OF_ASC_NODE":249.7919,"ARG_OF_PERICENTER":104.5917,"MEAN_ANOMALY":255.5422,"EPHEMERIS_TYPE":0,"CLASSIFICATION_TYPE":"U","NORAD_CAT_ID":44058,"ELEMENT_SET_NO":999,"REV_AT_EPOCH":33771,"BSTAR":0.00010313152,"MEAN_MOTION_DOT":5.2e-7,"MEAN_MOTION_DDOT":0},{"OBJECT_NAME":"ONEWEB-0008","OBJECT_ID":"2019-010C","EPOCH":"2026-03-03T12:23:08.598336","MEAN_MOTION":13.16593621,"ECCENTRICITY":0.000167,"INCLINATION":87.8999,"RA_OF_ASC_NODE":249.7995,"ARG_OF_PERICENTER":86.6054,"MEAN_ANOMALY":273.5268,"EPHEMERIS_TYPE":0,"CLASSIFICATION_TYPE":"U","NORAD_CAT_ID":44059,"ELEMENT_SET_NO":999,"REV_AT_EPOCH":33782,"BSTAR":0.00023511229,"MEAN_MOTION_DOT":1.03e-6,"MEAN_MOTION_DDOT":0},{"OBJECT_NAME":"ONEWEB-0007","OBJECT_ID":"2019-010D","EPOCH":"2026-03-03T14:51:52.213248","MEAN_MOTION":13.15547101,"ECCENTRICITY":0.00014253,"INCLINATION":87.8947,"RA_OF_ASC_NODE":280.3033,"ARG_OF_PERICENTER":99.1855,"MEAN_ANOMALY":260.9437,"EPHEMERIS_TYPE":0,"CLASSIFICATION_TYPE":"U","NORAD_CAT_ID":44060,"ELEMENT_SET_NO":999,"REV_AT_EPOCH":33749,"BSTAR":-0.00014182533,"MEAN_MOTION_DOT":-4.1e-7,"MEAN_MOTION_DDOT":0},{"OBJECT_NAME":"ONEWEB-0006","OBJECT_ID":"2019-010E","EPOCH":"2026-03-03T14:57:33.323904","MEAN_MOTION":13.1554655,"ECCENTRICITY":0.00016784,"INCLINATION":87.8956,"RA_OF_ASC_NODE":280.2556,"ARG_OF_PERICENTER":99.5611,"MEAN_ANOMALY":260.5709,"EPHEMERIS_TYPE":0,"CLASSIFICATION_TYPE":"U","NORAD_CAT_ID":44061,"ELEMENT_SET_NO":999,"REV_AT_EPOCH":33754,"BSTAR":-0.00022214787,"MEAN_MOTION_DOT":-7.1e-7,"MEAN_MOTION_DDOT":0},{"OBJECT_NAME":"ONEWEB-0011","OBJECT_ID":"2019-010F","EPOCH":"2026-03-03T12:22:24.845376","MEAN_MOTION":13.15551095,"ECCENTRICITY":0.00017539,"INCLINATION":87.8957,"RA_OF_ASC_NODE":280.2856,"ARG_OF_PERICENTER":89.7454,"MEAN_ANOMALY":270.3878,"EPHEMERIS_TYPE":0,"CLASSIFICATION_TYPE":"U","NORAD_CAT_ID":44062,"ELEMENT_SET_NO":999,"REV_AT_EPOCH":33752,"BSTAR":0.00043635729,"MEAN_MOTION_DOT":1.77e-6,"MEAN_MOTION_DDOT":0},{"OBJECT_NAME":"ONEWEB-0013","OBJECT_ID":"2020-008A","EPOCH":"2026-03-03T11:50:35.892672","MEAN_MOTION":13.09443974,"ECCENTRICITY":9.094e-5,"INCLINATION":87.8427,"RA_OF_ASC_NODE":74.1641,"ARG_OF_PERICENTER":76.2735,"MEAN_ANOMALY":283.8493,"EPHEMERIS_TYPE":0,"CLASSIFICATION_TYPE":"U","NORAD_CAT_ID":45131,"ELEMENT_SET_NO":999,"REV_AT_EPOCH":29223,"BSTAR":0.00097746841,"MEAN_MOTION_DOT":3.49e-6,"MEAN_MOTION_DDOT":0},{"OBJECT_NAME":"ONEWEB-0017","OBJECT_ID":"2020-008B","EPOCH":"2026-03-03T11:22:03.381600","MEAN_MOTION":13.10373733,"ECCENTRICITY":0.00020045,"INCLINATION":87.8763,"RA_OF_ASC_NODE":57.3221,"ARG_OF_PERICENTER":92.6074,"MEAN_ANOMALY":267.5283,"EPHEMERIS_TYPE":0,"CLASSIFICATION_TYPE":"U","NORAD_CAT_ID":45132,"ELEMENT_SET_NO":999,"REV_AT_EPOCH":29410,"BSTAR":-0.0017610966,"MEAN_MOTION_DOT":-6.02e-6,"MEAN_MOTION_DDOT":0},{"OBJECT_NAME":"ONEWEB-0020","OBJECT_ID":"2020-008C","EPOCH":"2026-03-03T12:29:01.249440","MEAN_MOTION":13.10369311,"ECCENTRICITY":0.00018442,"INCLINATION":87.8765,"RA_OF_ASC_NODE":57.3028,"ARG_OF_PERICENTER":88.5909,"MEAN_ANOMALY":271.5429,"EPHEMERIS_TYPE":0,"CLASSIFICATION_TYPE":"U","NORAD_CAT_ID":45133,"ELEMENT_SET_NO":999,"REV_AT_EPOCH":29450,"BSTAR":0.0010681488,"MEAN_MOTION_DOT":3.86e-6,"MEAN_MOTION_DDOT":0},{"OBJECT_NAME":"ONEWEB-0021","OBJECT_ID":"2020-008D","EPOCH":"2026-03-03T12:50:30.015168","MEAN_MOTION":13.10369558,"ECCENTRICITY":0.00017693,"INCLINATION":87.8757,"RA_OF_ASC_NODE":57.3246,"ARG_OF_PERICENTER":90.1691,"MEAN_ANOMALY":269.9639,"EPHEMERIS_TYPE":0,"CLASSIFICATION_TYPE":"U","NORAD_CAT_ID":45134,"ELEMENT_SET_NO":999,"REV_AT_EPOCH":29481,"BSTAR":-0.0010674988,"MEAN_MOTION_DOT":-3.6e-6,"MEAN_MOTION_DDOT":0},{"OBJECT_NAME":"ONEWEB-0023","OBJECT_ID":"2020-008F","EPOCH":"2026-03-03T13:06:01.770912","MEAN_MOTION":13.10372886,"ECCENTRICITY":0.00016723,"INCLINATION":87.8759,"RA_OF_ASC_NODE":57.302,"ARG_OF_PERICENTER":85.0983,"MEAN_ANOMALY":275.0335,"EPHEMERIS_TYPE":0,"CLASSIFICATION_TYPE":"U","NORAD_CAT_ID":45136,"ELEMENT_SET_NO":999,"REV_AT_EPOCH":29424,"BSTAR":-0.0018019114,"MEAN_MOTION_DOT":-6.16e-6,"MEAN_MOTION_DDOT":0},{"OBJECT_NAME":"ONEWEB-0024","OBJECT_ID":"2020-008G","EPOCH":"2026-03-03T12:26:35.834784","MEAN_MOTION":13.10412492,"ECCENTRICITY":0.00021149,"INCLINATION":87.8771,"RA_OF_ASC_NODE":57.2915,"ARG_OF_PERICENTER":89.0292,"MEAN_ANOMALY":271.1078,"EPHEMERIS_TYPE":0,"CLASSIFICATION_TYPE":"U","NORAD_CAT_ID":45137,"ELEMENT_SET_NO":999,"REV_AT_EPOCH":29440,"BSTAR":-0.023933449,"MEAN_MOTION_DOT":-8.339e-5,"MEAN_MOTION_DDOT":0},{"OBJECT_NAME":"ONEWEB-0025","OBJECT_ID":"2020-008H","EPOCH":"2026-03-03T12:41:03.406560","MEAN_MOTION":13.10871784,"ECCENTRICITY":0.00015155,"INCLINATION":87.8768,"RA_OF_ASC_NODE":57.2831,"ARG_OF_PERICENTER":90.0066,"MEAN_ANOMALY":270.1235,"EPHEMERIS_TYPE":0,"CLASSIFICATION_TYPE":"U","NORAD_CAT_ID":45138,"ELEMENT_SET_NO":999,"REV_AT_EPOCH":29473,"BSTAR":-6.117562e-6,"MEAN_MOTION_DOT":1.1e-7,"MEAN_MOTION_DDOT":0},{"OBJECT_NAME":"ONEWEB-0026","OBJECT_ID":"2020-008J","EPOCH":"2026-03-03T11:42:03.230496","MEAN_MOTION":13.11414036,"ECCENTRICITY":0.00020044,"INCLINATION":87.8852,"RA_OF_ASC_NODE":42.0822,"ARG_OF_PERICENTER":85.7189,"MEAN_ANOMALY":274.4168,"EPHEMERIS_TYPE":0,"CLASSIFICATION_TYPE":"U","NORAD_CAT_ID":45139,"ELEMENT_SET_NO":999,"REV_AT_EPOCH":29725,"BSTAR":-0.00016294952,"MEAN_MOTION_DOT":-4.5e-7,"MEAN_MOTION_DDOT":0},{"OBJECT_NAME":"ONEWEB-0028","OBJECT_ID":"2020-008K","EPOCH":"2026-03-03T10:39:46.508256","MEAN_MOTION":13.11418479,"ECCENTRICITY":0.00012418,"INCLINATION":87.8842,"RA_OF_ASC_NODE":42.1001,"ARG_OF_PERICENTER":73.683,"MEAN_ANOMALY":286.4434,"EPHEMERIS_TYPE":0,"CLASSIFICATION_TYPE":"U","NORAD_CAT_ID":45140,"ELEMENT_SET_NO":999,"REV_AT_EPOCH":29476,"BSTAR":-0.00094882895,"MEAN_MOTION_DOT":-3.24e-6,"MEAN_MOTION_DDOT":0},{"OBJECT_NAME":"ONEWEB-0032","OBJECT_ID":"2020-008L","EPOCH":"2026-03-03T11:24:25.616736","MEAN_MOTION":13.10372897,"ECCENTRICITY":0.00014703,"INCLINATION":87.8765,"RA_OF_ASC_NODE":57.3229,"ARG_OF_PERICENTER":79.7319,"MEAN_ANOMALY":280.3974,"EPHEMERIS_TYPE":0,"CLASSIFICATION_TYPE":"U","NORAD_CAT_ID":45141,"ELEMENT_SET_NO":999,"REV_AT_EPOCH":29445,"BSTAR":-0.0015962826,"MEAN_MOTION_DOT":-5.45e-6,"MEAN_MOTION_DDOT":0}]
